CCSDS_OMM_VERS = 2.0
CREATION_DATE  = 
ORIGINATOR     = 

OBJECT_NAME    = SITRO-AIS-57
OBJECT_ID      = 2025-313J
CENTER_NAME    = EARTH
REF_FRAME      = TEME
TIME_SYSTEM    = UTC
MEAN_ELEMENT_THEORY = SGP/SGP4

EPOCH          = 2026-01-13T03:36:48.427200
MEAN_MOTION    = 15.19852234
ECCENTRICITY   = .0016767
INCLINATION    = 97.4109
RA_OF_ASC_NODE = 90.3309
ARG_OF_PERICENTER = 181.9695
MEAN_ANOMALY   = 178.1477

EPHEMERIS_TYPE = 0
CLASSIFICATION_TYPE = U
NORAD_CAT_ID   = 67256
ELEMENT_SET_NO = 999
REV_AT_EPOCH   = 237
BSTAR          = .38825E-3
MEAN_MOTION_DOT = .8292E-4
MEAN_MOTION_DDOT = 0

CCSDS_OMM_VERS = 2.0
CREATION_DATE  = 
ORIGINATOR     = 

OBJECT_NAME    = SITRO-AIS-59
OBJECT_ID      = 2025-313K
CENTER_NAME    = EARTH
REF_FRAME      = TEME
TIME_SYSTEM    = UTC
MEAN_ELEMENT_THEORY = SGP/SGP4

EPOCH          = 2026-01-13T03:36:15.595200
MEAN_MOTION    = 15.19878279
ECCENTRICITY   = .0016492
INCLINATION    = 97.4115
RA_OF_ASC_NODE = 90.3326
ARG_OF_PERICENTER = 184.0530
MEAN_ANOMALY   = 176.0574

EPHEMERIS_TYPE = 0
CLASSIFICATION_TYPE = U
NORAD_CAT_ID   = 67257
ELEMENT_SET_NO = 999
REV_AT_EPOCH   = 237
BSTAR          = .38589E-3
MEAN_MOTION_DOT = .8246E-4
MEAN_MOTION_DDOT = 0

CCSDS_OMM_VERS = 2.0
CREATION_DATE  = 
ORIGINATOR     = 

OBJECT_NAME    = SITRO-AIS-58
OBJECT_ID      = 2025-313L
CENTER_NAME    = EARTH
REF_FRAME      = TEME
TIME_SYSTEM    = UTC
MEAN_ELEMENT_THEORY = SGP/SGP4

EPOCH          = 2026-01-13T03:35:49.848000
MEAN_MOTION    = 15.19920977
ECCENTRICITY   = .0016445
INCLINATION    = 97.4111
RA_OF_ASC_NODE = 90.3316
ARG_OF_PERICENTER = 183.3048
MEAN_ANOMALY   = 176.8081

EPHEMERIS_TYPE = 0
CLASSIFICATION_TYPE = U
NORAD_CAT_ID   = 67258
ELEMENT_SET_NO = 999
REV_AT_EPOCH   = 237
BSTAR          = .38322E-3
MEAN_MOTION_DOT = .8198E-4
MEAN_MOTION_DDOT = 0

CCSDS_OMM_VERS = 2.0
CREATION_DATE  = 
ORIGINATOR     = 

OBJECT_NAME    = 2025-313M
OBJECT_ID      = 2025-313M
CENTER_NAME    = EARTH
REF_FRAME      = TEME
TIME_SYSTEM    = UTC
MEAN_ELEMENT_THEORY = SGP/SGP4

EPOCH          = 2026-01-13T03:32:29.185728
MEAN_MOTION    = 15.20202520
ECCENTRICITY   = .0015654
INCLINATION    = 97.4156
RA_OF_ASC_NODE = 90.3548
ARG_OF_PERICENTER = 181.8205
MEAN_ANOMALY   = 178.2976

EPHEMERIS_TYPE = 0
CLASSIFICATION_TYPE = U
NORAD_CAT_ID   = 67259
ELEMENT_SET_NO = 999
REV_AT_EPOCH   = 237
BSTAR          = .43402E-3
MEAN_MOTION_DOT = .9369E-4
MEAN_MOTION_DDOT = 0

CCSDS_OMM_VERS = 2.0
CREATION_DATE  = 
ORIGINATOR     = 

OBJECT_NAME    = SITRO-AIS-60
OBJECT_ID      = 2025-313N
CENTER_NAME    = EARTH
REF_FRAME      = TEME
TIME_SYSTEM    = UTC
MEAN_ELEMENT_THEORY = SGP/SGP4

EPOCH          = 2026-01-13T03:33:53.503488
MEAN_MOTION    = 15.20013484
ECCENTRICITY   = .001584
INCLINATION    = 97.4119
RA_OF_ASC_NODE = 90.3354
ARG_OF_PERICENTER = 183.4585
MEAN_ANOMALY   = 176.6544

EPHEMERIS_TYPE = 0
CLASSIFICATION_TYPE = U
NORAD_CAT_ID   = 67260
ELEMENT_SET_NO = 999
REV_AT_EPOCH   = 237
BSTAR          = .30281E-3
MEAN_MOTION_DOT = .6478E-4
MEAN_MOTION_DDOT = 0

CCSDS_OMM_VERS = 2.0
CREATION_DATE  = 
ORIGINATOR     = 

OBJECT_NAME    = 2025-313P
OBJECT_ID      = 2025-313P
CENTER_NAME    = EARTH
REF_FRAME      = TEME
TIME_SYSTEM    = UTC
MEAN_ELEMENT_THEORY = SGP/SGP4

EPOCH          = 2026-01-13T01:56:11.559840
MEAN_MOTION    = 15.20382799
ECCENTRICITY   = .0015485
INCLINATION    = 97.4155
RA_OF_ASC_NODE = 90.2918
ARG_OF_PERICENTER = 182.3657
MEAN_ANOMALY   = 177.7508

EPHEMERIS_TYPE = 0
CLASSIFICATION_TYPE = U
NORAD_CAT_ID   = 67261
ELEMENT_SET_NO = 999
REV_AT_EPOCH   = 236
BSTAR          = .58454E-3
MEAN_MOTION_DOT = .12714E-3
MEAN_MOTION_DDOT = 0

CCSDS_OMM_VERS = 2.0
CREATION_DATE  = 
ORIGINATOR     = 

OBJECT_NAME    = 2025-313Q
OBJECT_ID      = 2025-313Q
CENTER_NAME    = EARTH
REF_FRAME      = TEME
TIME_SYSTEM    = UTC
MEAN_ELEMENT_THEORY = SGP/SGP4

EPOCH          = 2026-01-13T03:32:17.506176
MEAN_MOTION    = 15.20188597
ECCENTRICITY   = .0015528
INCLINATION    = 97.4122
RA_OF_ASC_NODE = 90.3371
ARG_OF_PERICENTER = 184.0240
MEAN_ANOMALY   = 176.0872

EPHEMERIS_TYPE = 0
CLASSIFICATION_TYPE = U
NORAD_CAT_ID   = 67262
ELEMENT_SET_NO = 999
REV_AT_EPOCH   = 237
BSTAR          = .39527E-3
MEAN_MOTION_DOT = .8522E-4
MEAN_MOTION_DDOT = 0

CCSDS_OMM_VERS = 2.0
CREATION_DATE  = 
ORIGINATOR     = 

OBJECT_NAME    = 2025-313R
OBJECT_ID      = 2025-313R
CENTER_NAME    = EARTH
REF_FRAME      = TEME
TIME_SYSTEM    = UTC
MEAN_ELEMENT_THEORY = SGP/SGP4

EPOCH          = 2026-01-13T03:32:35.100672
MEAN_MOTION    = 15.20140101
ECCENTRICITY   = .0015464
INCLINATION    = 97.4134
RA_OF_ASC_NODE = 90.3511
ARG_OF_PERICENTER = 182.9837
MEAN_ANOMALY   = 177.1308

EPHEMERIS_TYPE = 0
CLASSIFICATION_TYPE = U
NORAD_CAT_ID   = 67263
ELEMENT_SET_NO = 999
REV_AT_EPOCH   = 237
BSTAR          = .37222E-3
MEAN_MOTION_DOT = .8009E-4
MEAN_MOTION_DDOT = 0

CCSDS_OMM_VERS = 2.0
CREATION_DATE  = 
ORIGINATOR     = 

OBJECT_NAME    = 2025-313S
OBJECT_ID      = 2025-313S
CENTER_NAME    = EARTH
REF_FRAME      = TEME
TIME_SYSTEM    = UTC
MEAN_ELEMENT_THEORY = SGP/SGP4

EPOCH          = 2026-01-13T03:33:27.033120
MEAN_MOTION    = 15.20025276
ECCENTRICITY   = .0015434
INCLINATION    = 97.4204
RA_OF_ASC_NODE = 90.3469
ARG_OF_PERICENTER = 188.0844
MEAN_ANOMALY   = 172.0145

EPHEMERIS_TYPE = 0
CLASSIFICATION_TYPE = U
NORAD_CAT_ID   = 67264
ELEMENT_SET_NO = 999
REV_AT_EPOCH   = 237
BSTAR          = .26849E-3
MEAN_MOTION_DOT = .5736E-4
MEAN_MOTION_DDOT = 0

CCSDS_OMM_VERS = 2.0
CREATION_DATE  = 
ORIGINATOR     = 

OBJECT_NAME    = SITRO-TD-4
OBJECT_ID      = 2025-313T
CENTER_NAME    = EARTH
REF_FRAME      = TEME
TIME_SYSTEM    = UTC
MEAN_ELEMENT_THEORY = SGP/SGP4

EPOCH          = 2026-01-13T03:32:07.646208
MEAN_MOTION    = 15.20165866
ECCENTRICITY   = .0015394
INCLINATION    = 97.4114
RA_OF_ASC_NODE = 90.3469
ARG_OF_PERICENTER = 183.8624
MEAN_ANOMALY   = 176.2495

EPHEMERIS_TYPE = 0
CLASSIFICATION_TYPE = U
NORAD_CAT_ID   = 67265
ELEMENT_SET_NO = 999
REV_AT_EPOCH   = 237
BSTAR          = .33769E-3
MEAN_MOTION_DOT = .7264E-4
MEAN_MOTION_DDOT = 0

CCSDS_OMM_VERS = 2.0
CREATION_DATE  = 
ORIGINATOR     = 

OBJECT_NAME    = SITRO-AIS-65
OBJECT_ID      = 2025-313U
CENTER_NAME    = EARTH
REF_FRAME      = TEME
TIME_SYSTEM    = UTC
MEAN_ELEMENT_THEORY = SGP/SGP4

EPOCH          = 2026-01-13T03:32:03.906816
MEAN_MOTION    = 15.20176406
ECCENTRICITY   = .0015305
INCLINATION    = 97.4141
RA_OF_ASC_NODE = 90.3520
ARG_OF_PERICENTER = 182.5370
MEAN_ANOMALY   = 177.5790

EPHEMERIS_TYPE = 0
CLASSIFICATION_TYPE = U
NORAD_CAT_ID   = 67266
ELEMENT_SET_NO = 999
REV_AT_EPOCH   = 237
BSTAR          = .37565E-3
MEAN_MOTION_DOT = .8091E-4
MEAN_MOTION_DDOT = 0

CCSDS_OMM_VERS = 2.0
CREATION_DATE  = 
ORIGINATOR     = 

OBJECT_NAME    = 2025-313V
OBJECT_ID      = 2025-313V
CENTER_NAME    = EARTH
REF_FRAME      = TEME
TIME_SYSTEM    = UTC
MEAN_ELEMENT_THEORY = SGP/SGP4

EPOCH          = 2026-01-13T03:31:33.530304
MEAN_MOTION    = 15.20232423
ECCENTRICITY   = .0014519
INCLINATION    = 97.4123
RA_OF_ASC_NODE = 90.3404
ARG_OF_PERICENTER = 188.1352
MEAN_ANOMALY   = 171.9650

EPHEMERIS_TYPE = 0
CLASSIFICATION_TYPE = U
NORAD_CAT_ID   = 67267
ELEMENT_SET_NO = 999
REV_AT_EPOCH   = 237
BSTAR          = .41982E-3
MEAN_MOTION_DOT = .9064E-4
MEAN_MOTION_DDOT = 0

