SITRO-AIS-57            
1 67256U 25313J   26013.15056050  .00008292  00000+0  38825-3 0  9993
2 67256  97.4109  90.3309 0016767 181.9695 178.1477 15.19852234  2375
SITRO-AIS-59            
1 67257U 25313K   26013.15018050  .00008246  00000+0  38589-3 0  9998
2 67257  97.4115  90.3326 0016492 184.0530 176.0574 15.19878279  2371
SITRO-AIS-58            
1 67258U 25313L   26013.14988250  .00008198  00000+0  38322-3 0  9997
2 67258  97.4111  90.3316 0016445 183.3048 176.8081 15.19920977  2375
2025-313M               
1 67259U 25313M   26013.14756002  .00009369  00000+0  43402-3 0  9992
2 67259  97.4156  90.3548 0015654 181.8205 178.2976 15.20202520  2379
SITRO-AIS-60            
1 67260U 25313N   26013.14853592  .00006478  00000+0  30281-3 0  9995
2 67260  97.4119  90.3354 0015840 183.4585 176.6544 15.20013484  2373
2025-313P               
1 67261U 25313P   26013.08068935  .00012714  00000+0  58454-3 0  9990
2 67261  97.4155  90.2918 0015485 182.3657 177.7508 15.20382799  2361
2025-313Q               
1 67262U 25313Q   26013.14742484  .00008522  00000+0  39527-3 0  9998
2 67262  97.4122  90.3371 0015528 184.0240 176.0872 15.20188597  2372
2025-313R               
1 67263U 25313R   26013.14762848  .00008009  00000+0  37222-3 0  9995
2 67263  97.4134  90.3511 0015464 182.9837 177.1308 15.20140101  2375
2025-313S               
1 67264U 25313S   26013.14822955  .00005736  00000+0  26849-3 0  9999
2 67264  97.4204  90.3469 0015434 188.0844 172.0145 15.20025276  2376
SITRO-TD-4              
1 67265U 25313T   26013.14731072  .00007264  00000+0  33769-3 0  9996
2 67265  97.4114  90.3469 0015394 183.8624 176.2495 15.20165866  2375
SITRO-AIS-65            
1 67266U 25313U   26013.14726744  .00008091  00000+0  37565-3 0  9994
2 67266  97.4141  90.3520 0015305 182.5370 177.5790 15.20176406  2374
2025-313V               
1 67267U 25313V   26013.14691586  .00009064  00000+0  41982-3 0  9999
2 67267  97.4123  90.3404 0014519 188.1352 171.9650 15.20232423  2379
